NORAD_CAT_ID,OBJECT_NAME,OBJECT_TYPE,EPOCH,MEAN_MOTION,ECCENTRICITY,INCLINATION,RA_OF_ASC_NODE,ARG_OF_PERICENTER,MEAN_ANOMALY,BSTAR,MEAN_MOTION_DOT,MEAN_MOTION_DDOT,TLE_LINE0,TLE_LINE1,TLE_LINE2,SEMIMAJOR_AXIS,PERIOD,APOGEE,PERIGEE,DECAYED
52139.0,STARLINK-3730,PAYLOAD,2022-07-08 14:00:01,15.08864954,0.0001523,53.2141,335.0861,53.881,191.6819,-0.00045832,-7.58e-05,0.0,0 STARLINK-3730,1 52139U 22029BD  22189.58334491 -.00007580  00000-0 -45832-3 0  9991,2 52139  53.2141 335.0861 0001523  53.8810 191.6819 15.08864954  1309,6917.804,95.436,540.7230000000002,538.616,0.0
52139.0,STARLINK-3730,PAYLOAD,2022-07-08 22:00:01,15.08869122,0.0001613,53.2139,333.5901,48.6284,208.616,3.0882e-05,2.04e-06,0.0,0 STARLINK-3730,1 52139U 22029BD  22189.91668981  .00000204  00000-0  30882-4 0  9996,2 52139  53.2139 333.5901 0001613  48.6284 208.6160 15.08869122  1301,6917.791,95.436,540.7719999999998,538.5409999999998,0.0
52139.0,STARLINK-3730,PAYLOAD,2022-07-09 14:00:01,15.08828159,0.0001672,53.2144,330.5963,55.6304,224.7693,-0.0047645,-0.00075299,0.0,0 STARLINK-3730,1 52139U 22029BD  22190.58334491 -.00075299  00000-0 -47645-2 0  9998,2 52139  53.2144 330.5963 0001672  55.6304 224.7693 15.08828159 18626,6917.917,95.438,540.938,538.625,0.0
52139.0,STARLINK-3730,PAYLOAD,2022-07-09 20:00:01,15.08756187,0.0001791,53.2144,329.4748,52.2142,146.8559,0.0034188,0.00054418,0.0,0 STARLINK-3730,1 52139U 22029BD  22190.83334491  .00054418  00000-0  34188-2 0  9992,2 52139  53.2144 329.4748 0001791  52.2142 146.8559 15.08756187  1302,6918.137,95.443,541.241,538.763,0.0
52139.0,STARLINK-3730,PAYLOAD,2022-07-10 06:00:00,15.08754149,0.0001587,53.2146,327.6022,58.5196,244.9635,0.0060159,0.00096542,0.0,0 STARLINK-3730,1 52139U 22029BD  22191.25001157  .00096542  00000-0  60159-2 0  9990,2 52139  53.2146 327.6022 0001587  58.5196 244.9635 15.08754149 18725,6918.143,95.443,541.106,538.91,0.0
52139.0,STARLINK-3730,PAYLOAD,2022-07-10 14:00:01,15.08836617,0.0001639,53.2148,326.1071,54.0323,260.9815,-0.0010267,-0.00016589,0.0,0 STARLINK-3730,1 52139U 22029BD  22191.58334491 -.00016589  00000-0 -10267-2 0  9996,2 52139  53.2148 326.1071 0001639  54.0323 260.9815 15.08836617  1301,6917.891,95.438,540.89,538.622,0.0
52139.0,STARLINK-3730,PAYLOAD,2022-07-10 22:00:00,15.08837522,0.0001669,53.2145,324.6109,49.4689,277.1258,0.00025359,3.75e-05,0.0,0 STARLINK-3730,1 52139U 22029BD  22191.91667824  .00003750  00000-0  25359-3 0  9995,2 52139  53.2145 324.6109 0001669  49.4689 277.1258 15.08837522 18821,6917.888000000001,95.438,540.908,538.5980000000002,0.0
52139.0,STARLINK-3730,PAYLOAD,2022-07-11 14:00:01,15.08861474,0.0001636999999999,53.215,321.6177,53.6316,296.1575,-0.00097955,-0.00015853,0.0,0 STARLINK-3730,1 52139U 22029BD  22192.58334491 -.00015853  00000-0 -97955-3 0  9990,2 52139  53.2150 321.6177 0001637  53.6316 296.1575 15.08861474  1309,6917.815,95.436,540.812,538.547,0.0
52139.0,STARLINK-3730,PAYLOAD,2022-07-11 22:00:00,15.08876622,0.0001674,53.2146,320.1211,50.1897,311.2079,-0.0023237,-0.00037117,0.0,0 STARLINK-3730,1 52139U 22029BD  22192.91667824 -.00037117  00000-0 -23237-2 0  9994,2 52139  53.2146 320.1211 0001674  50.1897 311.2079 15.08876622  1303,6917.768,95.435,540.7909999999998,538.475,0.0
52139.0,STARLINK-3730,PAYLOAD,2022-07-12 06:00:00,15.08819682,0.0001563,53.2148,318.6232,59.8457,313.1905,0.0035324,0.00056349,0.0,0 STARLINK-3730,1 52139U 22029BD  22193.25001157  .00056349  00000-0  35324-2 0  9999,2 52139  53.2148 318.6232 0001563  59.8457 313.1905 15.08819682 19036,6917.941999999999,95.439,540.889,538.726,0.0
52139.0,STARLINK-3730,PAYLOAD,2022-07-12 14:00:01,15.08870089,0.0001685,53.2149,317.1284,54.9917,329.6424,-0.0015511,-0.00024909,0.0,0 STARLINK-3730,1 52139U 22029BD  22193.58334491 -.00024909  00000-0 -15511-2 0  9990,2 52139  53.2149 317.1284 0001685  54.9917 329.6424 15.08870089  1307,6917.788000000001,95.436,540.819,538.488,0.0
52139.0,STARLINK-3730,PAYLOAD,2022-07-12 22:00:00,15.08866866,0.0001654,53.2144,315.6317,51.0496,345.2087,-0.0016538,-0.00026531,0.0,0 STARLINK-3730,1 52139U 22029BD  22193.91667824 -.00026531  00000-0 -16538-2 0  9999,2 52139  53.2144 315.6317 0001654  51.0496 345.2087 15.08866866  1305,6917.7980000000025,95.436,540.807,538.519,0.0
52139.0,STARLINK-3730,PAYLOAD,2022-07-13 14:00:01,15.08845597,0.0001686,53.2145,312.6392,55.8007,3.6716,-0.0013945,-0.00022417,0.0,0 STARLINK-3730,1 52139U 22029BD  22194.58334491 -.00022417  00000-0 -13945-2 0  9992,2 52139  53.2145 312.6392 0001686  55.8007   3.6716 15.08845597  1303,6917.863,95.437,540.895,538.562,0.0
52139.0,STARLINK-3730,PAYLOAD,2022-07-13 22:00:00,15.08854312,0.0001663,53.2141,311.1426,52.3986,18.6622,-0.0048025,-0.00075945,0.0,0 STARLINK-3730,1 52139U 22029BD  22194.91667824 -.00075945  00000-0 -48025-2 0  9999,2 52139  53.2141 311.1426 0001663  52.3986  18.6622 15.08854312  1301,6917.837,95.437,540.852,538.5509999999998,0.0
52139.0,STARLINK-3730,PAYLOAD,2022-07-14 06:00:00,15.08778565,0.0001589,53.2141,309.6449,61.476000000000006,21.1642,0.0025813,0.00040963,0.0,0 STARLINK-3730,1 52139U 22029BD  22195.25001157  .00040963  00000-0  25813-2 0  9998,2 52139  53.2141 309.6449 0001589  61.4760  21.1642 15.08778565 19334,6918.068,95.441,541.0319999999998,538.8340000000002,0.0
52139.0,STARLINK-3730,PAYLOAD,2022-07-14 14:00:01,15.08801179,0.0001735,53.2141,308.1504,56.6593,37.5134,-0.00068838,-0.00011215,0.0,0 STARLINK-3730,1 52139U 22029BD  22195.58334491 -.00011215  00000-0 -68838-3 0  9999,2 52139  53.2141 308.1504 0001735  56.6593  37.5134 15.08801179  1306,6917.999,95.44,541.064,538.664,0.0
52139.0,STARLINK-3730,PAYLOAD,2022-07-14 22:00:00,15.08818659,0.0001720999999999,53.2138,306.6537,54.0921,51.6225,-0.001027,-0.00016586,0.0,0 STARLINK-3730,1 52139U 22029BD  22195.91667824 -.00016586  00000-0 -10270-2 0  9997,2 52139  53.2138 306.6537 0001721  54.0921  51.6225 15.08818659 19435,6917.946,95.439,541.001,538.62,0.0
52139.0,STARLINK-3730,PAYLOAD,2022-07-15 14:00:01,15.08854625,0.0001877,53.2138,303.6615,57.1949,71.6538,-0.00026444,-4.496e-05,0.0,0 STARLINK-3730,1 52139U 22029BD  22196.58334491 -.00004496  00000-0 -26444-3 0  9990,2 52139  53.2138 303.6615 0001877  57.1949  71.6538 15.08854625 19538,6917.8359999999975,95.437,540.999,538.4019999999998,0.0
52139.0,STARLINK-3730,PAYLOAD,2022-07-15 22:00:00,15.08892643,0.0001817,53.2136,302.1645,54.6528,85.8096,-0.003771,-0.00059892,0.0,0 STARLINK-3730,1 52139U 22029BD  22196.91667824 -.00059892  00000-0 -37710-2 0  9993,2 52139  53.2136 302.1645 0001817  54.6528  85.8096 15.08892643  1306,6917.719,95.434,540.841,538.328,0.0
52139.0,STARLINK-3730,PAYLOAD,2022-07-16 14:00:01,15.08872961,0.0001806,53.2137,299.1721,52.9565,110.7504,-0.0024121,-0.00038507,0.0,0 STARLINK-3730,1 52139U 22029BD  22197.58334491 -.00038507  00000-0 -24121-2 0  9990,2 52139  53.2137 299.1721 0001806  52.9565 110.7504 15.08872961 19680,6917.78,95.435,540.894,538.395,0.0
52139.0,STARLINK-3730,PAYLOAD,2022-07-16 22:00:00,15.08865248,0.0001715,53.2137,297.6749,50.5032,124.8246,-0.0009367,-0.00015175,0.0,0 STARLINK-3730,1 52139U 22029BD  22197.91667824 -.00015175  00000-0 -93670-3 0  9998,2 52139  53.2137 297.6749 0001715  50.5032 124.8246 15.08865248  1304,6917.803000000001,95.436,540.855,538.482,0.0
52139.0,STARLINK-3730,PAYLOAD,2022-07-17 06:00:00,15.0886749,0.0001689,53.2139,296.1773,57.7147,129.2303,-0.00060453,-9.904e-05,0.0,0 STARLINK-3730,1 52139U 22029BD  22198.25001157 -.00009904  00000-0 -60453-3 0  9993,2 52139  53.2139 296.1773 0001689  57.7147 129.2303 15.08867490 19788,6917.795999999999,95.436,540.83,538.493,0.0
52139.0,STARLINK-3730,PAYLOAD,2022-07-17 14:00:01,15.088535999999998,0.0001849,53.2138,294.6826,51.5857,146.9763,-0.0012925,-0.00020807,0.0,0 STARLINK-3730,1 52139U 22029BD  22198.58334491 -.00020807  00000-0 -12925-2 0  9994,2 52139  53.2138 294.6826 0001849  51.5857 146.9763 15.08853600  1300,6917.839,95.437,540.9830000000002,538.425,0.0
52139.0,STARLINK-3730,PAYLOAD,2022-07-17 22:00:00,15.08875719,0.0001763,53.215,293.1856,50.1988,159.9613,-0.007783,-0.00122182,0.0,0 STARLINK-3730,1 52139U 22029BD  22198.91667824 -.00122182  00000-0 -77830-2 0  9995,2 52139  53.2150 293.1856 0001763  50.1988 159.9613 15.08875719 19881,6917.771,95.435,540.856,538.4169999999998,0.0
52139.0,STARLINK-3730,PAYLOAD,2022-07-18 06:00:00,15.08802057,0.000153,53.214,291.6879,54.797,166.9297,0.0018704,0.00029574,0.0,0 STARLINK-3730,1 52139U 22029BD  22199.25001157  .00029574  00000-0  18704-2 0  9998,2 52139  53.2140 291.6879 0001530  54.7970 166.9297 15.08802057 19938,6917.996,95.44,540.92,538.803,0.0
52139.0,STARLINK-3730,PAYLOAD,2022-07-18 14:00:01,15.08809643,0.0001706999999999,53.2138,290.1931,47.5495,185.743,0.0010508,0.00016461,0.0,0 STARLINK-3730,1 52139U 22029BD  22199.58334491  .00016461  00000-0  10508-2 0  9999,2 52139  53.2138 290.1931 0001707  47.5495 185.7430 15.08809643  1304,6917.973000000001,95.439,541.019,538.6569999999998,0.0
52139.0,STARLINK-3730,PAYLOAD,2022-07-18 22:00:00,15.08842063,0.0001598,53.2138,288.6958,47.9454,196.9094,-0.0016582,-0.00026583,0.0,0 STARLINK-3730,1 52139U 22029BD  22199.91667824 -.00026583  00000-0 -16582-2 0  9991,2 52139  53.2138 288.6958 0001598  47.9454 196.9094 15.08842063 20036,6917.874,95.437,540.845,538.634,0.0
52139.0,STARLINK-3730,PAYLOAD,2022-07-19 14:00:01,15.08840725,0.0001709,53.2137,285.7036,47.6799,220.3681,0.0012341,0.00019408,0.0,0 STARLINK-3730,1 52139U 22029BD  22200.58334491  .00019408  00000-0  12341-2 0  9993,2 52139  53.2137 285.7036 0001709  47.6799 220.3681 15.08840725 20131,6917.878000000002,95.438,540.925,538.561,0.0
52139.0,STARLINK-3730,PAYLOAD,2022-07-19 22:00:00,15.0887642,0.0001693,53.2152,284.207,47.7931,231.8528,-0.0051678,-0.00081684,0.0,0 STARLINK-3730,1 52139U 22029BD  22200.91667824 -.00081684  00000-0 -51678-2 0  9992,2 52139  53.2152 284.2070 0001693  47.7931 231.8528 15.08876420  1307,6917.769,95.435,540.805,538.4630000000002,0.0
